[
    {
        "Altitude(m)": 624790.7736040895,
        "Argument of Periapsis(deg)": 0.0,
        "Eccentricity": 0.0,
        "Inclination(deg)": 60.0,
        "Latitude(deg)": -59.14705053782744,
        "Longitude(deg)": 126.03453244559871,
        "Mean Anomaly(deg)": -81.81820000000006,
        "RAAN(deg)": 300.0,
        "Satellite Name": "Test1 1337",
        "Satellite Number": 1337,
        "Semi-Major Axis(m)": 6980739.136638005,
        "Time(s)": 0
    },
    {
        "Altitude(m)": 624737.4289013378,
        "Argument of Periapsis(deg)": 0.00010418945913296404,
        "Eccentricity": 0.0,
        "Inclination(deg)": 60.0,
        "Latitude(deg)": -58.99450655313618,
        "Longitude(deg)": 127.15403282958835,
        "Mean Anomaly(deg)": -81.1980938545382,
        "RAAN(deg)": 299.99957995086027,
        "Satellite Name": "Test1 1337",
        "Satellite Number": 1337,
        "Semi-Major Axis(m)": 6980739.136638005,
        "Time(s)": 10
    }
]